SAOCOM 1A
1 43641U 18076A   26105.62125127  .00000543  00000+0  74731-4 0  9997
2 43641  97.8904 293.2731 0001466  92.9879 267.1502 14.82148296406834
SAOCOM 1B
1 46265U 20059A   26105.58499580 -.00000383  00000+0 -41519-4 0  9990
2 46265  97.8891 292.3319 0001437  85.1059 275.0318 14.82157628304219
CSS (TIANHE)
1 48274U 21035A   26105.10565112  .00018051  00000+0  20098-3 0  9997
2 48274  41.4685 346.2837 0005649 210.9621 149.0886 15.62404897283301
COSMOS 2550
1 48865U 21056A   26105.62043198 -.00000192  00000+0 -10652-7 0  9996
2 48865  67.1427 289.1686 0008363 268.2966  91.7230 15.33837730269121
XRISM
1 57800U 23137A   26105.21994546  .00002762  00000+0  15177-3 0  9990
2 57800  31.0026  47.3030 0007527  46.5933 313.5332 15.11913570143328
ACS3
1 59588U 24077B   26104.54937875  .00002786  00000+0  21868-2 0  9995
2 59588  97.1910  37.6042 0072226 359.7596   0.3522 13.91258553 99180
H-2A R/B
1 43682U 18084L   26105.13347895  .00010889  00000+0  24824-3 0  9996
2 43682  98.8679 330.3484 0023093 255.5500 104.3181 15.42890465411396
CZ-2C R/B
1 52794U 22058K   26105.38276472  .00019746  00000+0  26434-3 0  9995
2 52794  50.1863 129.1368 0040376 357.9485   2.1315 15.57002233215843
CZ-2C R/B
1 54039U 22132E   26105.55371433  .00029511  00000+0  29581-3 0  9991
2 54039  97.2940 110.0895 0013514 318.6296  41.3939 15.65375067196131
GSLV R/B
1 54149U 22138AN  26105.55526242  .00001326  00000+0  11224-3 0  9998
2 54149  87.3832 154.0140 0022260  24.4136 335.8145 14.96991194189441
SZ-21 MODULE
1 66515U 25246C   26105.33049890  .00022253  00000+0  17104-3 0  9991
2 66515  41.4749 337.3074 0004486 273.6792  86.3537 15.71481945 23832
