[{"OBJECT_NAME":"SAOCOM 1A","OBJECT_ID":"2018-076A","EPOCH":"2026-04-15T14:54:36.109728","MEAN_MOTION":14.82148296,"ECCENTRICITY":0.00014663,"INCLINATION":97.8904,"RA_OF_ASC_NODE":293.2731,"ARG_OF_PERICENTER":92.9879,"MEAN_ANOMALY":267.1502,"EPHEMERIS_TYPE":0,"CLASSIFICATION_TYPE":"U","NORAD_CAT_ID":43641,"ELEMENT_SET_NO":999,"REV_AT_EPOCH":40683,"BSTAR":7.4730985e-5,"MEAN_MOTION_DOT":5.43e-6,"MEAN_MOTION_DDOT":0},{"OBJECT_NAME":"H-2A R/B","OBJECT_ID":"2018-084L","EPOCH":"2026-04-15T03:12:12.581280","MEAN_MOTION":15.42890465,"ECCENTRICITY":0.00230932,"INCLINATION":98.8679,"RA_OF_ASC_NODE":330.3484,"ARG_OF_PERICENTER":255.55,"MEAN_ANOMALY":104.3181,"EPHEMERIS_TYPE":0,"CLASSIFICATION_TYPE":"U","NORAD_CAT_ID":43682,"ELEMENT_SET_NO":999,"REV_AT_EPOCH":41139,"BSTAR":0.00024824433,"MEAN_MOTION_DOT":0.00010889,"MEAN_MOTION_DDOT":0},{"OBJECT_NAME":"SAOCOM 1B","OBJECT_ID":"2020-059A","EPOCH":"2026-04-15T14:02:23.637120","MEAN_MOTION":14.82157628,"ECCENTRICITY":0.00014373,"INCLINATION":97.8891,"RA_OF_ASC_NODE":292.3319,"ARG_OF_PERICENTER":85.1059,"MEAN_ANOMALY":275.0318,"EPHEMERIS_TYPE":0,"CLASSIFICATION_TYPE":"U","NORAD_CAT_ID":46265,"ELEMENT_SET_NO":999,"REV_AT_EPOCH":30421,"BSTAR":-4.1519092e-5,"MEAN_MOTION_DOT":-3.83e-6,"MEAN_MOTION_DDOT":0},{"OBJECT_NAME":"CSS (TIANHE)","OBJECT_ID":"2021-035A","EPOCH":"2026-04-15T02:32:08.256768","MEAN_MOTION":15.62404897,"ECCENTRICITY":0.00056496,"INCLINATION":41.4685,"RA_OF_ASC_NODE":346.2837,"ARG_OF_PERICENTER":210.9621,"MEAN_ANOMALY":149.0886,"EPHEMERIS_TYPE":0,"CLASSIFICATION_TYPE":"U","NORAD_CAT_ID":48274,"ELEMENT_SET_NO":999,"REV_AT_EPOCH":28330,"BSTAR":0.00020097799,"MEAN_MOTION_DOT":0.00018051,"MEAN_MOTION_DDOT":0},{"OBJECT_NAME":"COSMOS 2550","OBJECT_ID":"2021-056A","EPOCH":"2026-04-15T14:53:25.323072","MEAN_MOTION":15.3383773,"ECCENTRICITY":0.00083633,"INCLINATION":67.1427,"RA_OF_ASC_NODE":289.1686,"ARG_OF_PERICENTER":268.2966,"MEAN_ANOMALY":91.723,"EPHEMERIS_TYPE":0,"CLASSIFICATION_TYPE":"U","NORAD_CAT_ID":48865,"ELEMENT_SET_NO":999,"REV_AT_EPOCH":26912,"BSTAR":-1.0652e-8,"MEAN_MOTION_DOT":-1.92e-6,"MEAN_MOTION_DDOT":0},{"OBJECT_NAME":"CZ-2C R/B","OBJECT_ID":"2022-058K","EPOCH":"2026-04-15T09:11:10.871808","MEAN_MOTION":15.57002233,"ECCENTRICITY":0.00403765,"INCLINATION":50.1863,"RA_OF_ASC_NODE":129.1368,"ARG_OF_PERICENTER":357.9485,"MEAN_ANOMALY":2.1315,"EPHEMERIS_TYPE":0,"CLASSIFICATION_TYPE":"U","NORAD_CAT_ID":52794,"ELEMENT_SET_NO":999,"REV_AT_EPOCH":21584,"BSTAR":0.00026433801,"MEAN_MOTION_DOT":0.00019746,"MEAN_MOTION_DDOT":0},{"OBJECT_NAME":"CZ-2C R/B","OBJECT_ID":"2022-132E","EPOCH":"2026-04-15T13:17:20.918112","MEAN_MOTION":15.65375067,"ECCENTRICITY":0.00135142,"INCLINATION":97.294,"RA_OF_ASC_NODE":110.0895,"ARG_OF_PERICENTER":318.6296,"MEAN_ANOMALY":41.3939,"EPHEMERIS_TYPE":0,"CLASSIFICATION_TYPE":"U","NORAD_CAT_ID":54039,"ELEMENT_SET_NO":999,"REV_AT_EPOCH":19613,"BSTAR":0.00029580733,"MEAN_MOTION_DOT":0.00029511,"MEAN_MOTION_DDOT":0},{"OBJECT_NAME":"GSLV R/B","OBJECT_ID":"2022-138AN","EPOCH":"2026-04-15T13:19:34.673088","MEAN_MOTION":14.96991194,"ECCENTRICITY":0.00222602,"INCLINATION":87.3832,"RA_OF_ASC_NODE":154.014,"ARG_OF_PERICENTER":24.4136,"MEAN_ANOMALY":335.8145,"EPHEMERIS_TYPE":0,"CLASSIFICATION_TYPE":"U","NORAD_CAT_ID":54149,"ELEMENT_SET_NO":999,"REV_AT_EPOCH":18944,"BSTAR":0.00011223665,"MEAN_MOTION_DOT":1.326e-5,"MEAN_MOTION_DDOT":0},{"OBJECT_NAME":"XRISM","OBJECT_ID":"2023-137A","EPOCH":"2026-04-15T05:16:43.287744","MEAN_MOTION":15.1191357,"ECCENTRICITY":0.0007527,"INCLINATION":31.0026,"RA_OF_ASC_NODE":47.303,"ARG_OF_PERICENTER":46.5933,"MEAN_ANOMALY":313.5332,"EPHEMERIS_TYPE":0,"CLASSIFICATION_TYPE":"U","NORAD_CAT_ID":57800,"ELEMENT_SET_NO":999,"REV_AT_EPOCH":14332,"BSTAR":0.00015177,"MEAN_MOTION_DOT":2.762e-5,"MEAN_MOTION_DDOT":0},{"OBJECT_NAME":"ACS3","OBJECT_ID":"2024-077B","EPOCH":"2026-04-14T13:11:06.324000","MEAN_MOTION":13.91258553,"ECCENTRICITY":0.0072226,"INCLINATION":97.191,"RA_OF_ASC_NODE":37.6042,"ARG_OF_PERICENTER":359.7596,"MEAN_ANOMALY":0.3522,"EPHEMERIS_TYPE":0,"CLASSIFICATION_TYPE":"U","NORAD_CAT_ID":59588,"ELEMENT_SET_NO":999,"REV_AT_EPOCH":9918,"BSTAR":0.0021868,"MEAN_MOTION_DOT":2.786e-5,"MEAN_MOTION_DDOT":0},{"OBJECT_NAME":"SZ-21 MODULE","OBJECT_ID":"2025-246C","EPOCH":"2026-04-15T07:55:55.104960","MEAN_MOTION":15.71481945,"ECCENTRICITY":0.00044866,"INCLINATION":41.4749,"RA_OF_ASC_NODE":337.3074,"ARG_OF_PERICENTER":273.6792,"MEAN_ANOMALY":86.3537,"EPHEMERIS_TYPE":0,"CLASSIFICATION_TYPE":"U","NORAD_CAT_ID":66515,"ELEMENT_SET_NO":999,"REV_AT_EPOCH":2383,"BSTAR":0.00017103645,"MEAN_MOTION_DOT":0.00022253,"MEAN_MOTION_DDOT":0}]
